STARLINK-31473          
1 59339U 24057V   26068.31701876 -.00001745  00000+0 -53933-4 0  9997
2 59339  43.0022 189.0471 0001678 284.5895  75.4771 15.27568004109789
HERMES-2                
1 63243U 25052AK  26068.92847372  .00009456  00000+0  34839-3 0  9999
2 63243  97.4004 324.4926 0006340  99.4160 260.7796 15.28021069 54859
